ALOS-4 (DAICHI-4)       
1 60182U 24123A   24257.93147717  .00003620  00000+0  49127-3 0  9994
2 60182  97.9212 353.3148 0001574  99.9556 260.1833 14.79478433 11067
